NORAD_CAT_ID,OBJECT_NAME,OBJECT_TYPE,EPOCH,MEAN_MOTION,ECCENTRICITY,INCLINATION,RA_OF_ASC_NODE,ARG_OF_PERICENTER,MEAN_ANOMALY,BSTAR,MEAN_MOTION_DOT,MEAN_MOTION_DDOT,TLE_LINE0,TLE_LINE1,TLE_LINE2,SEMIMAJOR_AXIS,PERIOD,APOGEE,PERIGEE,DECAYED
53247.0,STARLINK-4061,PAYLOAD,2023-11-15 11:52:54,15.08843829,0.0001565,53.2187,33.5324,91.5605,268.5566,0.00058203,8.988e-05,0.0,0 STARLINK-4061,1 53247U 22086F   23319.49507679  .00008988  00000-0  58203-3 0  9998,2 53247  53.2187  33.5324 0001565  91.5605 268.5566 15.08843829 73716,6917.869,95.437,540.816,538.651,0.0
53247.0,STARLINK-4061,PAYLOAD,2023-11-16 08:32:55,15.08841026,0.0001602,53.2181,29.6673,93.0425,267.075,0.00022721,3.33e-05,0.0,0 STARLINK-4061,1 53247U 22086F   23320.35619851  .00003330  00000-0  22721-3 0  9993,2 53247  53.2181  29.6673 0001602  93.0425 267.0750 15.08841026 73347,6917.877,95.437,540.85,538.634,0.0
53247.0,STARLINK-4061,PAYLOAD,2023-11-16 21:16:00,15.08841352,0.0001682,53.2185,27.2909,103.4506,256.6674,0.0001462,2.04e-05,0.0,0 STARLINK-4061,1 53247U 22086F   23320.88611799  .00002040  00000-0  14620-3 0  9990,2 53247  53.2185  27.2909 0001682 103.4506 256.6674 15.08841352 73926,6917.876,95.437,540.905,538.578,0.0
53247.0,STARLINK-4061,PAYLOAD,2023-11-17 11:34:28,15.08841203,0.0001673,53.2188,24.6143,106.3044,253.8132,8.0193e-05,9.88e-06,0.0,0 STARLINK-4061,1 53247U 22086F   23321.48227741  .00000988  00000-0  80193-4 0  9995,2 53247  53.2188  24.6143 0001673 106.3044 253.8132 15.08841203 73517,6917.877,95.437,540.899,538.584,0.0
53247.0,STARLINK-4061,PAYLOAD,2023-11-18 11:25:16,15.08840073,0.0001547,53.2195,20.1539,104.083,256.0334,0.00010887,1.445e-05,0.0,0 STARLINK-4061,1 53247U 22086F   23322.47588166  .00001445  00000-0  10887-3 0  9997,2 53247  53.2195  20.1539 0001547 104.0830 256.0334 15.08840073 73662,6917.88,95.438,540.815,538.675,0.0
53247.0,STARLINK-4061,PAYLOAD,2023-11-18 13:00:39,15.08839399,0.0001526,53.2194,19.8564,102.0049,258.1115,9.6108e-05,1.242e-05,0.0,0 STARLINK-4061,1 53247U 22086F   23322.54212216  .00001242  00000-0  96108-4 0  9991,2 53247  53.2194  19.8564 0001526 102.0049 258.1115 15.08839399 74177,6917.882,95.438,540.803,538.692,0.0
53247.0,STARLINK-4061,PAYLOAD,2023-11-18 20:57:35,15.08836933,0.0001476,53.2192,18.3688,91.8742,268.2419,9.3516e-05,1.201e-05,0.0,0 STARLINK-4061,1 53247U 22086F   23322.87332331  .00001201  00000-0  93516-4 0  9993,2 53247  53.2192  18.3688 0001476  91.8742 268.2419 15.08836933 74221,6917.89,95.438,540.776,538.734,0.0
53247.0,STARLINK-4061,PAYLOAD,2023-11-19 12:51:25,15.08846788,0.0001396,53.2182,15.3937,89.8034,270.3118,0.00012591,1.717e-05,0.0,0 STARLINK-4061,1 53247U 22086F   23323.53571680  .00001717  00000-0  12591-3 0  9994,2 53247  53.2182  15.3937 0001396  89.8034 270.3118 15.08846788 74326,6917.86,95.437,540.69,538.759,0.0
53247.0,STARLINK-4061,PAYLOAD,2023-11-19 20:48:22,15.08834866,0.0001513,53.2192,13.9075,83.5457,276.5707,5.422e-05,5.75e-06,0.0,0 STARLINK-4061,1 53247U 22086F   23323.86692681  .00000575  00000-0  54220-4 0  9992,2 53247  53.2192  13.9075 0001513  83.5457 276.5707 15.08834866 74376,6917.896,95.438,540.808,538.714,0.0
53247.0,STARLINK-4061,PAYLOAD,2023-11-20 03:09:58,15.08790037,0.0001276,53.2187,12.7158,95.4532,264.6605,-0.0003414,-5.71e-05,0.0,0 STARLINK-4061,1 53247U 22086F   23324.13192807 -.00005710  00000-0 -34140-3 0  9994,2 53247  53.2187  12.7158 0001276  95.4532 264.6605 15.08790037 73916,6918.033,95.441,540.781,539.015,0.0
53247.0,STARLINK-4061,PAYLOAD,2023-11-20 09:31:29,15.08823947,0.0001422,53.218,11.5277,90.834,269.2815,-4.2199e-05,-9.59e-06,0.0,0 STARLINK-4061,1 53247U 22086F   23324.39686441 -.00000959  00000-0 -42199-4 0  9998,2 53247  53.2180  11.5277 0001422  90.8340 269.2815 15.08823947 73952,6917.929,95.439,540.778,538.811,0.0
53247.0,STARLINK-4061,PAYLOAD,2023-11-20 12:42:14,15.08833633,0.0001516,53.2186,10.9303,111.2919,248.8235,-4.1686e-05,-9.51e-06,0.0,0 STARLINK-4061,1 53247U 22086F   23324.52933825 -.00000951  00000-0 -41686-4 0  9996,2 53247  53.2186  10.9303 0001516 111.2919 248.8235 15.08833633 74475,6917.9,95.438,540.814,538.716,0.0
53247.0,STARLINK-4061,PAYLOAD,2023-11-20 20:39:10,15.08839369,0.0001397,53.2185,9.4471,86.2491,273.8661,0.0001082,1.434e-05,0.0,0 STARLINK-4061,1 53247U 22086F   23324.86053417  .00001434  00000-0  10820-3 0  9993,2 53247  53.2185   9.4471 0001397  86.2491 273.8661 15.08839369 74525,6917.882,95.438,540.714,538.781,0.0
53247.0,STARLINK-4061,PAYLOAD,2023-11-21 09:22:14,15.08853315,0.0001401,53.217,7.067,84.2542,275.861,0.00041689,6.355e-05,0.0,0 STARLINK-4061,1 53247U 22086F   23325.39045023  .00006355  00000-0  41689-3 0  9990,2 53247  53.2170   7.0670 0001401  84.2542 275.8610 15.08853315 74102,6917.84,95.437,540.674,538.736,0.0
53247.0,STARLINK-4061,PAYLOAD,2023-11-21 12:33:01,15.08865133,0.0001477,53.2168,6.4722,84.6982,275.4179,0.00082916,0.00012942,0.0,0 STARLINK-4061,1 53247U 22086F   23325.52292992  .00012942  00000-0  82916-3 0  9991,2 53247  53.2168   6.4722 0001477  84.6982 275.4179 15.08865133 74629,6917.804,95.436,540.69,538.647,0.0
53247.0,STARLINK-4061,PAYLOAD,2023-11-22 09:13:01,15.08872443,0.0001681,53.2178,2.6071,84.0142,276.1042,0.00059417,9.189e-05,0.0,0 STARLINK-4061,1 53247U 22086F   23326.38404119  .00009189  00000-0  59417-3 0  9991,2 53247  53.2178   2.6071 0001681  84.0142 276.1042 15.08872443 74757,6917.781,95.436,540.809,538.483,0.0
53247.0,STARLINK-4061,PAYLOAD,2023-11-23 02:42:15,15.08839191,0.0001339,53.2174,359.3322,92.0897,268.0249,-0.00047762,-7.881e-05,0.0,0 STARLINK-4061,1 53247U 22086F   23327.11267796 -.00007881  00000-0 -47762-3 0  9990,2 53247  53.2174 359.3322 0001339  92.0897 268.0249 15.08839191 74369,6917.883,95.438,540.674,538.822,0.0
53247.0,STARLINK-4061,PAYLOAD,2023-11-23 09:03:47,15.0884745,0.0001671,53.2171,358.1469,100.1289,259.9891,-2.276e-05,-6.5e-06,0.0,0 STARLINK-4061,1 53247U 22086F   23327.37763547 -.00000650  00000-0 -22760-4 0  9992,2 53247  53.2171 358.1469 0001671 100.1289 259.9891 15.08847450 74404,6917.858,95.437,540.879,538.567,0.0
53247.0,STARLINK-4061,PAYLOAD,2023-11-24 02:33:02,15.0883084,0.0001871,53.2184,354.8746,109.424,250.6954,2.5602e-05,1.19e-06,0.0,0 STARLINK-4061,1 53247U 22086F   23328.10628425  .00000119  00000-0  25602-4 0  9995,2 53247  53.2184 354.8746 0001871 109.4240 250.6954 15.08830840 74515,6917.908,95.438,541.068,538.479,0.0
53247.0,STARLINK-4061,PAYLOAD,2023-11-24 10:29:58,15.08828636,0.0001767,53.2182,353.3857,105.7319,254.3868,-3.7698e-05,-8.88e-06,0.0,0 STARLINK-4061,1 53247U 22086F   23328.43748815 -.00000888  00000-0 -37698-4 0  9990,2 53247  53.2182 353.3857 0001767 105.7319 254.3868 15.08828636 75066,6917.915,95.438,541.003,538.558,0.0
53247.0,STARLINK-4061,PAYLOAD,2023-11-25 07:09:59,15.08844399,0.0001667,53.2169,349.5255,105.1176,255.0001,0.00046832,7.174e-05,0.0,0 STARLINK-4061,1 53247U 22086F   23329.29861048  .00007174  00000-0  46832-3 0  9991,2 53247  53.2169 349.5255 0001667 105.1176 255.0001 15.08844399 75199,6917.867,95.437,540.885,538.579,0.0
53247.0,STARLINK-4061,PAYLOAD,2023-11-26 10:11:32,15.08871018,0.0001659,53.2166,344.4668,94.0743,266.0438,0.00073177,0.00011387,0.0,0 STARLINK-4061,1 53247U 22086F   23330.42467765  .00011387  00000-0  73177-3 0  9999,2 53247  53.2166 344.4668 0001659  94.0743 266.0438 15.08871018 74862,6917.786,95.436,540.798,538.503,0.0
53247.0,STARLINK-4061,PAYLOAD,2023-11-27 10:02:21,15.08806043,0.0001779,53.2167,340.0053,97.2198,262.8997,-0.000111,-2.053e-05,0.0,0 STARLINK-4061,1 53247U 22086F   23331.41830461 -.00002053  00000-0 -11100-3 0  9996,2 53247  53.2167 340.0053 0001779  97.2198 262.8997 15.08806043 75013,6917.984,95.44,541.08,538.618,0.0
53247.0,STARLINK-4061,PAYLOAD,2023-11-28 06:42:22,15.08851802,0.0001834,53.2164,336.1441,88.2062,271.914,0.0014112,0.0002225,0.0,0 STARLINK-4061,1 53247U 22086F   23332.27942958  .00022250  00000-0  14112-2 0  9990,2 53247  53.2164 336.1441 0001834  88.2062 271.9140 15.08851802 75147,6917.844,95.437,540.978,538.441,0.0
53247.0,STARLINK-4061,PAYLOAD,2023-11-29 00:11:36,15.0886592,0.0002192,53.2163,332.875,73.7393,286.384,0.00089723,0.0001403,0.0,0 STARLINK-4061,1 53247U 22086F   23333.00806359  .00014030  00000-0  89723-3 0  9994,2 53247  53.2163 332.8750 0002192  73.7393 286.3840 15.08865920 75251,6917.801,95.436,541.183,538.15,0.0
53247.0,STARLINK-4061,PAYLOAD,2023-11-29 06:33:08,15.0886424,0.0002187,53.2165,331.6814,72.7589,287.3642,0.00061488,9.518e-05,0.0,0 STARLINK-4061,1 53247U 22086F   23333.27302050  .00009518  00000-0  61488-3 0  9995,2 53247  53.2165 331.6814 0002187  72.7589 287.3642 15.08864240 75290,6917.806,95.436,541.184,538.158,0.0
53247.0,STARLINK-4061,PAYLOAD,2023-11-30 03:13:09,15.0885443,0.0002178,53.2177,327.8137,103.9644,256.1591,0.00041252,6.286e-05,0.0,0 STARLINK-4061,1 53247U 22086F   23334.13413553  .00006286  00000-0  41252-3 0  9998,2 53247  53.2177 327.8137 0002178 103.9644 256.1591 15.08854430 75429,6917.836,95.437,541.208,538.195,0.0
53247.0,STARLINK-4061,PAYLOAD,2023-12-01 04:39:19,15.08845778,0.0002087,53.2179,323.0515,103.1894,256.9331,3.4376e-06,-2.34e-06,0.0,0 STARLINK-4061,1 53247U 22086F   23335.19397455 -.00000234  00000-0  34376-5 0  9996,2 53247  53.2179 323.0515 0002087 103.1894 256.9331 15.08845778 75589,6917.863,95.437,541.171,538.284,0.0
53247.0,STARLINK-4061,PAYLOAD,2023-12-01 09:25:28,15.0884781,0.0002028,53.2182,322.1586,105.5009,254.6208,0.00010975,1.459e-05,0.0,0 STARLINK-4061,1 53247U 22086F   23335.39269115  .00001459  00000-0  10975-3 0  9995,2 53247  53.2182 322.1586 0002028 105.5009 254.6208 15.08847810 76117,6917.857,95.437,541.124,538.319,0.0
53247.0,STARLINK-4061,PAYLOAD,2023-12-02 06:05:28,15.08875257,0.0001967,53.218,318.2927,99.6952,260.4262,0.00070282,0.00010926,0.0,0 STARLINK-4061,1 53247U 22086F   23336.25380010  .00010926  00000-0  70282-3 0  9995,2 53247  53.2180 318.2927 0001967  99.6952 260.4262 15.08875257 75740,6917.773,95.435,540.998,538.277,0.0
